STARLINK-34736          
1 64846U 25152E   26071.17923499  .00015140  00000+0  10502-2 0  9993
2 64846  97.6040 287.9804 0002861  71.5021 288.6517 15.05685898 35793
STARLINK-34746          
1 64847U 25152F   26071.25001157 -.00045261  00000+0 -31500-2 0  9991
2 64847  97.6024 288.0435 0002012  88.5844 264.8651 15.05678075  5787
STARLINK-34748          
1 64848U 25152G   26071.17096034  .00006164  00000+0  43088-3 0  9993
2 64848  97.6019 287.9969 0002159  78.0071 282.1398 15.05660813 35796
STARLINK-34756          
1 64849U 25152H   26071.25001157 -.00050772  00000+0 -36172-2 0  9996
2 64849  97.6031 288.0640 0000935 102.9150 250.0605 15.04840656  5778
STARLINK-34757          
1 64850U 25152J   26071.19586104  .00002977  00000+0  21045-3 0  9997
2 64850  97.6037 287.9607 0002629  70.3566 289.7944 15.05651012 35795
STARLINK-34722          
1 64851U 25152K   26071.14047267  .00003249  00000+0  22926-3 0  9997
2 64851  97.6040 287.8828 0001266  90.3035 269.8337 15.05652859 35787
STARLINK-34564          
1 64852U 25152L   26071.19032266  .00001846  00000+0  13213-3 0  9996
2 64852  97.6029 287.9709 0002439  76.8059 283.3440 15.05650392 35799
STARLINK-34676          
1 64853U 25152M   26071.14324201  .00006149  00000+0  43002-3 0  9995
2 64853  97.6040 287.8790 0001868  81.3638 278.7800 15.05647368 35787
STARLINK-34682          
1 64854U 25152N   26071.16263263  .00010469  00000+0  72874-3 0  9997
2 64854  97.6010 288.0095 0001339  72.8716 287.2657 15.05646574 35795
STARLINK-34631          
1 64855U 25152P   26071.19309175  .00001896  00000+0  13555-3 0  9999
2 64855  97.6033 287.9670 0002231  87.1302 273.0180 15.05651298 35793
STARLINK-34578          
1 64856U 25152Q   26071.15708183  .00020211  00000+0  13993-2 0  9995
2 64856  97.6048 288.0277 0001495  63.3771 296.7609 15.05694326 35799
STARLINK-34683          
1 64857U 25152R   26071.18201574  .00002705  00000+0  19162-3 0  9994
2 64857  97.6016 287.9874 0002031  80.2808 279.8648 15.05653044 35799
STARLINK-34654          
1 64858U 25152S   26071.15986832  .00002200  00000+0  15677-3 0  9996
2 64858  97.6019 288.0041 0002097 100.0690 260.0774 15.05618424 35798
STARLINK-34575          
1 64859U 25152T   26071.15431866 -.00001916  00000+0 -12861-3 0  9996
2 64859  97.6022 288.0185 0002173  89.0695 271.0781 15.05652448 35792
STARLINK-34570          
1 64860U 25152U   26071.14601788  .00004595  00000+0  32232-3 0  9997
2 64860  97.6033 287.8855 0001685  70.1919 289.9490 15.05667140 35783
STARLINK-34651          
1 64861U 25152V   26071.17642445 -.00005237  00000+0 -40344-3 0  9995
2 64861  97.6017 288.1577 0001322 125.7823 234.3525 15.01267427 35806
