[{"OBJECT_NAME":"STARLINK-34736","OBJECT_ID":"2025-152E","EPOCH":"2026-03-12T04:18:05.903136","MEAN_MOTION":15.05685898,"ECCENTRICITY":0.00028611,"INCLINATION":97.604,"RA_OF_ASC_NODE":287.9804,"ARG_OF_PERICENTER":71.5021,"MEAN_ANOMALY":288.6517,"EPHEMERIS_TYPE":0,"CLASSIFICATION_TYPE":"U","NORAD_CAT_ID":64846,"ELEMENT_SET_NO":999,"REV_AT_EPOCH":3579,"BSTAR":0.0010502061,"MEAN_MOTION_DOT":0.0001514,"MEAN_MOTION_DDOT":0},{"OBJECT_NAME":"STARLINK-34746","OBJECT_ID":"2025-152F","EPOCH":"2026-03-12T06:00:00.999648","MEAN_MOTION":15.05678075,"ECCENTRICITY":0.00020122,"INCLINATION":97.6024,"RA_OF_ASC_NODE":288.0435,"ARG_OF_PERICENTER":88.5844,"MEAN_ANOMALY":264.8651,"EPHEMERIS_TYPE":0,"CLASSIFICATION_TYPE":"U","NORAD_CAT_ID":64847,"ELEMENT_SET_NO":999,"REV_AT_EPOCH":578,"BSTAR":-0.003150022,"MEAN_MOTION_DOT":-0.00045261,"MEAN_MOTION_DDOT":0},{"OBJECT_NAME":"STARLINK-34748","OBJECT_ID":"2025-152G","EPOCH":"2026-03-12T04:06:10.973376","MEAN_MOTION":15.05660813,"ECCENTRICITY":0.00021591,"INCLINATION":97.6019,"RA_OF_ASC_NODE":287.9969,"ARG_OF_PERICENTER":78.0071,"MEAN_ANOMALY":282.1398,"EPHEMERIS_TYPE":0,"CLASSIFICATION_TYPE":"U","NORAD_CAT_ID":64848,"ELEMENT_SET_NO":999,"REV_AT_EPOCH":3579,"BSTAR":0.00043087594,"MEAN_MOTION_DOT":6.164e-5,"MEAN_MOTION_DDOT":0},{"OBJECT_NAME":"STARLINK-34756","OBJECT_ID":"2025-152H","EPOCH":"2026-03-12T06:00:00.999648","MEAN_MOTION":15.04840656,"ECCENTRICITY":9.353e-5,"INCLINATION":97.6031,"RA_OF_ASC_NODE":288.064,"ARG_OF_PERICENTER":102.915,"MEAN_ANOMALY":250.0605,"EPHEMERIS_TYPE":0,"CLASSIFICATION_TYPE":"U","NORAD_CAT_ID":64849,"ELEMENT_SET_NO":999,"REV_AT_EPOCH":577,"BSTAR":-0.0036171953,"MEAN_MOTION_DOT":-0.00050772,"MEAN_MOTION_DDOT":0},{"OBJECT_NAME":"STARLINK-34757","OBJECT_ID":"2025-152J","EPOCH":"2026-03-12T04:42:02.393856","MEAN_MOTION":15.05651012,"ECCENTRICITY":0.00026293,"INCLINATION":97.6037,"RA_OF_ASC_NODE":287.9607,"ARG_OF_PERICENTER":70.3566,"MEAN_ANOMALY":289.7944,"EPHEMERIS_TYPE":0,"CLASSIFICATION_TYPE":"U","NORAD_CAT_ID":64850,"ELEMENT_SET_NO":999,"REV_AT_EPOCH":3579,"BSTAR":0.0002104495,"MEAN_MOTION_DOT":2.977e-5,"MEAN_MOTION_DDOT":0},{"OBJECT_NAME":"STARLINK-34722","OBJECT_ID":"2025-152K","EPOCH":"2026-03-12T03:22:16.838688","MEAN_MOTION":15.05652859,"ECCENTRICITY":0.00012667,"INCLINATION":97.604,"RA_OF_ASC_NODE":287.8828,"ARG_OF_PERICENTER":90.3035,"MEAN_ANOMALY":269.8337,"EPHEMERIS_TYPE":0,"CLASSIFICATION_TYPE":"U","NORAD_CAT_ID":64851,"ELEMENT_SET_NO":999,"REV_AT_EPOCH":3578,"BSTAR":0.00022926244,"MEAN_MOTION_DOT":3.249e-5,"MEAN_MOTION_DDOT":0},{"OBJECT_NAME":"STARLINK-34564","OBJECT_ID":"2025-152L","EPOCH":"2026-03-12T04:34:03.877824","MEAN_MOTION":15.05650392,"ECCENTRICITY":0.0002439,"INCLINATION":97.6029,"RA_OF_ASC_NODE":287.9709,"ARG_OF_PERICENTER":76.8059,"MEAN_ANOMALY":283.344,"EPHEMERIS_TYPE":0,"CLASSIFICATION_TYPE":"U","NORAD_CAT_ID":64852,"ELEMENT_SET_NO":999,"REV_AT_EPOCH":3579,"BSTAR":0.0001321252,"MEAN_MOTION_DOT":1.846e-5,"MEAN_MOTION_DDOT":0},{"OBJECT_NAME":"STARLINK-34676","OBJECT_ID":"2025-152M","EPOCH":"2026-03-12T03:26:16.109664","MEAN_MOTION":15.05647368,"ECCENTRICITY":0.00018682,"INCLINATION":97.604,"RA_OF_ASC_NODE":287.879,"ARG_OF_PERICENTER":81.3638,"MEAN_ANOMALY":278.78,"EPHEMERIS_TYPE":0,"CLASSIFICATION_TYPE":"U","NORAD_CAT_ID":64853,"ELEMENT_SET_NO":999,"REV_AT_EPOCH":3578,"BSTAR":0.00043002048,"MEAN_MOTION_DOT":6.149e-5,"MEAN_MOTION_DDOT":0},{"OBJECT_NAME":"STARLINK-34682","OBJECT_ID":"2025-152N","EPOCH":"2026-03-12T03:54:11.459232","MEAN_MOTION":15.05646574,"ECCENTRICITY":0.00013398,"INCLINATION":97.601,"RA_OF_ASC_NODE":288.0095,"ARG_OF_PERICENTER":72.8716,"MEAN_ANOMALY":287.2657,"EPHEMERIS_TYPE":0,"CLASSIFICATION_TYPE":"U","NORAD_CAT_ID":64854,"ELEMENT_SET_NO":999,"REV_AT_EPOCH":3579,"BSTAR":0.00072874262,"MEAN_MOTION_DOT":0.00010469,"MEAN_MOTION_DDOT":0},{"OBJECT_NAME":"STARLINK-34631","OBJECT_ID":"2025-152P","EPOCH":"2026-03-12T04:38:03.127200","MEAN_MOTION":15.05651298,"ECCENTRICITY":0.00022319,"INCLINATION":97.6033,"RA_OF_ASC_NODE":287.967,"ARG_OF_PERICENTER":87.1302,"MEAN_ANOMALY":273.018,"EPHEMERIS_TYPE":0,"CLASSIFICATION_TYPE":"U","NORAD_CAT_ID":64855,"ELEMENT_SET_NO":999,"REV_AT_EPOCH":3579,"BSTAR":0.00013555143,"MEAN_MOTION_DOT":1.896e-5,"MEAN_MOTION_DDOT":0},{"OBJECT_NAME":"STARLINK-34578","OBJECT_ID":"2025-152Q","EPOCH":"2026-03-12T03:46:11.870112","MEAN_MOTION":15.05694326,"ECCENTRICITY":0.00014951,"INCLINATION":97.6048,"RA_OF_ASC_NODE":288.0277,"ARG_OF_PERICENTER":63.3771,"MEAN_ANOMALY":296.7609,"EPHEMERIS_TYPE":0,"CLASSIFICATION_TYPE":"U","NORAD_CAT_ID":64856,"ELEMENT_SET_NO":999,"REV_AT_EPOCH":3579,"BSTAR":0.0013992685,"MEAN_MOTION_DOT":0.00020211,"MEAN_MOTION_DDOT":0},{"OBJECT_NAME":"STARLINK-34683","OBJECT_ID":"2025-152R","EPOCH":"2026-03-12T04:22:06.159936","MEAN_MOTION":15.05653044,"ECCENTRICITY":0.00020313,"INCLINATION":97.6016,"RA_OF_ASC_NODE":287.9874,"ARG_OF_PERICENTER":80.2808,"MEAN_ANOMALY":279.8648,"EPHEMERIS_TYPE":0,"CLASSIFICATION_TYPE":"U","NORAD_CAT_ID":64857,"ELEMENT_SET_NO":999,"REV_AT_EPOCH":3579,"BSTAR":0.00019162201,"MEAN_MOTION_DOT":2.705e-5,"MEAN_MOTION_DDOT":0},{"OBJECT_NAME":"STARLINK-34654","OBJECT_ID":"2025-152S","EPOCH":"2026-03-12T03:50:12.622848","MEAN_MOTION":15.05618424,"ECCENTRICITY":0.00020978,"INCLINATION":97.6019,"RA_OF_ASC_NODE":288.0041,"ARG_OF_PERICENTER":100.069,"MEAN_ANOMALY":260.0774,"EPHEMERIS_TYPE":0,"CLASSIFICATION_TYPE":"U","NORAD_CAT_ID":64858,"ELEMENT_SET_NO":999,"REV_AT_EPOCH":3579,"BSTAR":0.0001567718,"MEAN_MOTION_DOT":2.2e-5,"MEAN_MOTION_DDOT":0},{"OBJECT_NAME":"STARLINK-34575","OBJECT_ID":"2025-152T","EPOCH":"2026-03-12T03:42:13.132224","MEAN_MOTION":15.05652448,"ECCENTRICITY":0.00021731,"INCLINATION":97.6022,"RA_OF_ASC_NODE":288.0185,"ARG_OF_PERICENTER":89.0695,"MEAN_ANOMALY":271.0781,"EPHEMERIS_TYPE":0,"CLASSIFICATION_TYPE":"U","NORAD_CAT_ID":64859,"ELEMENT_SET_NO":999,"REV_AT_EPOCH":3579,"BSTAR":-0.00012861113,"MEAN_MOTION_DOT":-1.916e-5,"MEAN_MOTION_DDOT":0},{"OBJECT_NAME":"STARLINK-34570","OBJECT_ID":"2025-152U","EPOCH":"2026-03-12T03:30:15.944832","MEAN_MOTION":15.0566714,"ECCENTRICITY":0.00016858,"INCLINATION":97.6033,"RA_OF_ASC_NODE":287.8855,"ARG_OF_PERICENTER":70.1919,"MEAN_ANOMALY":289.949,"EPHEMERIS_TYPE":0,"CLASSIFICATION_TYPE":"U","NORAD_CAT_ID":64860,"ELEMENT_SET_NO":999,"REV_AT_EPOCH":3578,"BSTAR":0.00032231953,"MEAN_MOTION_DOT":4.595e-5,"MEAN_MOTION_DDOT":0},{"OBJECT_NAME":"STARLINK-34651","OBJECT_ID":"2025-152V","EPOCH":"2026-03-12T04:14:03.072480","MEAN_MOTION":15.01267427,"ECCENTRICITY":0.00013226,"INCLINATION":97.6017,"RA_OF_ASC_NODE":288.1577,"ARG_OF_PERICENTER":125.7823,"MEAN_ANOMALY":234.3525,"EPHEMERIS_TYPE":0,"CLASSIFICATION_TYPE":"U","NORAD_CAT_ID":64861,"ELEMENT_SET_NO":999,"REV_AT_EPOCH":3580,"BSTAR":-0.00040344495,"MEAN_MOTION_DOT":-5.237e-5,"MEAN_MOTION_DDOT":0}]
